ONEWEB-0578             
1 56067U 23043X   26193.08244824  .00000081  00000+0  16413-3 0  9995
2 56067  87.9240 239.0189 0002170  87.4576 272.6806 13.21826011161526
ONEWEB-0579             
1 56068U 23043Y   26192.61983732  .00000039  00000+0  61738-4 0  9996
2 56068  87.9267 239.1071 0002247 108.3296 251.8083 13.21826661161475
ONEWEB-0581             
1 56069U 23043Z   26193.07726672  .00000121  00000+0  28291-3 0  9994
2 56069  87.9075 223.8408 0001493  86.6151 273.5151 13.16594847162231
ONEWEB-0609             
1 56070U 23043AA  26193.12818192 -.00000062  00000+0 -19942-3 0  9990
2 56070  87.8984 254.2417 0002148  98.0133 262.1241 13.15547121159719
ONEWEB-0613             
1 56071U 23043AB  26192.66946500 -.00000079  00000+0 -24480-3 0  9995
2 56071  87.8984 254.3457 0002188 103.5199 256.6175 13.15547764159653
ONEWEB-0630             
1 56072U 23043AC  26193.12105303 -.00000015  00000+0 -73929-4 0  9999
2 56072  87.8986 254.2292 0002194 104.5010 255.6364 13.15550028159704
ONEWEB-0632             
1 56073U 23043AD  26193.11630668 -.00000107  00000+0 -31705-3 0  9993
2 56073  87.8988 254.2465 0001854  98.2057 261.9284 13.15547907159704
ONEWEB-0633             
1 56074U 23043AE  26192.72968100  .00000012  00000+0 -28793-5 0  9994
2 56074  87.8991 254.3015 0002254 103.9893 256.1488 13.15549139159631
ONEWEB-0634             
1 56075U 23043AF  26193.09570954  .00000132  00000+0  31682-3 0  9993
2 56075  87.8989 254.2665 0002358  88.8615 271.2785 13.15547940159677
ONEWEB-0635             
1 56076U 23043AG  26192.71066689  .00000006  00000+0 -19400-4 0  9993
2 56076  87.8999 254.3082 0001852  96.2876 263.8465 13.15547281159651
ONEWEB-0636             
1 56077U 23043AH  26193.15908153  .00000181  00000+0  44662-3 0  9994
2 56077  87.8994 254.2251 0001938 105.5039 254.6306 13.15547565159695
ONEWEB-0637             
1 56078U 23043AJ  26193.15274867  .00000121  00000+0  28834-3 0  9990
2 56078  87.8983 254.2406 0002031  88.5936 271.5427 13.15547861159711
ONEWEB-0647             
1 56079U 23043AK  26193.14799437  .00000101  00000+0  23409-3 0  9996
2 56079  87.8984 254.2541 0001965 100.2863 259.8489 13.15548841159704
ONEWEB-0651             
1 56080U 23043AL  26193.29535876  .00000126  00000+0  30035-3 0  9999
2 56080  87.8985 254.2179 0001872  93.0679 267.0666 13.15548057160928
ONEWEB-0718             
1 56081U 23043AM  26193.13848647  .00000067  00000+0  14330-3 0  9990
2 56081  87.8984 254.2296 0002586  94.8069 265.3357 13.15549609159710
ONEWEB-0561             
1 56710U 23068A   26192.74285990 -.00000061  00000+0 -18318-3 0  9994
2 56710  87.9188 269.5505 0001753 101.7017 258.4313 13.20769420152746
ONEWEB-0668             
1 56711U 23068B   26193.05193480  .00000037  00000+0  62929-4 0  9991
2 56711  87.9076 223.8339 0002356  83.0871 277.0528 13.16594597155059
ONEWEB-0676             
1 56712U 23068C   26193.05985693  .00000086  00000+0  19031-3 0  9996
2 56712  87.9073 223.8391 0001741  94.4564 265.6766 13.16594325154973
ONEWEB-0677             
1 56713U 23068D   26192.73109570 -.00000041  00000+0 -13244-3 0  9996
2 56713  87.9189 269.5444 0001913  89.6842 270.4510 13.20771475153040
ONEWEB-0678             
1 56714U 23068E   26193.18285577  .00000006  00000+0 -19135-4 0  9995
2 56714  87.8997 254.2153 0001997 105.8539 254.2812 13.15548220152577
ONEWEB-0679             
1 56715U 23068F   26193.01868674  .00000070  00000+0  14877-3 0  9990
2 56715  87.9083 223.8374 0002046  77.9494 282.1867 13.16594152154991
ONEWEB-0680             
1 56716U 23068G   26193.07570255  .00000135  00000+0  29421-3 0  9995
2 56716  87.9243 239.0199 0002368  82.5098 277.6305 13.21826244154388
ONEWEB-0681             
1 56717U 23068H   26193.05635759 -.00000013  00000+0 -62464-4 0  9997
2 56717  87.9238 239.0248 0001061  81.4687 278.6567 13.21827481154373
ONEWEB-0682             
1 56718U 23068J   26192.67422543 -.00000083  00000+0 -25533-3 0  9992
2 56718  87.8990 254.3171 0002319  85.3466 274.7929 13.15547680152671
ONEWEB-0683             
1 56719U 23068K   26193.15433359  .00000153  00000+0  37364-3 0  9995
2 56719  87.8998 254.2214 0002223  93.2312 266.9072 13.15548187152708
ONEWEB-0684             
1 56720U 23068L   26192.62985393  .00000131  00000+0  31355-3 0  9998
2 56720  87.8993 254.3155 0002887 122.9867 237.1541 13.15549372152462
ONEWEB-0686             
1 56721U 23068M   26192.59912495  .00000036  00000+0  59907-4 0  9996
2 56721  87.9069 223.9422 0002443  94.4079 265.7331 13.16593401154923
ONEWEB-0694             
1 56722U 23068N   26193.06143831  .00000101  00000+0  23086-3 0  9991
2 56722  87.9091 223.8197 0002377  84.1003 276.0399 13.16593562155047
ONEWEB-0696             
1 56723U 23068P   26193.11946884 -.00000104  00000+0 -31054-3 0  9996
2 56723  87.8988 254.2542 0001990 111.2859 248.8484 13.15549373152640
ONEWEB-0703             
1 56724U 23068Q   26193.12897519 -.00000086  00000+0 -26330-3 0  9998
2 56724  87.8983 254.2335 0001606 123.0750 237.0535 13.15547597152532
